K16C29G 21.3   0.15 K1794 245.09964  308.06423  134.80903   29.11172  0.4060796  0.38846881   1.8602241  5 MPO373609   130   1   23 days 0.32 M-v 38h MPCALB     2804          2016 CG29          20160226
K16C29H 26.2   0.15 K1794 225.50145  121.95972  301.32321    1.75587  0.6058987  0.36069422   1.9545341  7 MPO365166    26   1   10 days 0.29 M-v 3Eh MPCALB     2803          2016 CH29          20160213
K16C29J 24.0   0.15 K1794 332.91918  217.06736  303.56230   23.54629  0.2506781  0.60616212   1.3827495  7 MPO365166    41   1   13 days 0.45 M-v 3Eh MPCALB     2804          2016 CJ29          20160217
K16C29K 25.8   0.15 K1794 205.35522  147.05011  327.03913    4.48560  0.5030458  0.34542767   2.0117066  6 MPO377904    76   1   24 days 0.37 M-v 3Eh MPCALB     2803          2016 CK29          20160228
K16C29L 24.6   0.15 K1794 354.41369  302.36958  134.10801   19.90596  0.3803511  0.56790785   1.4441672  4 MPO365166   138   1    9 days 0.48 M-v 3Eh MPCALB     2803          2016 CL29          20160213
K16C29N 24.3   0.15 K1794 190.25326   97.50606  315.22326    5.62310  0.6791654  0.30278725   2.1963978  7 MPO365167    43   1    6 days 0.34 M-v 3Eh MPCALB     2803          2016 CN29          20160210
K16C29O 25.0   0.15 K1794  84.95653  114.42735  123.44012    2.86397  0.2437261  0.90157877   1.0612074  6 MPO365167    72   1   32 days 0.29 M-v 3Eh MPCADO     2803          2016 CO29          20160216
K16C29Q 25.0   0.15 K1794 262.55576  330.86644  130.01425   17.19061  0.4237950  0.43270620   1.7311737  7 MPO365167    21   1    5 days 0.38 M-v 3Eh MPCALB     2803          2016 CQ29          20160209
K16C29R 21.8   0.15 K1794 149.40562  158.02737  324.99299   31.98604  0.5291080  0.25058446   2.4917241  5 MPO373609   117   1   36 days 0.32 M-v 38h MPCALB     2804          2016 CR29          20160310
K16C29S 19.0   0.15 K1794 172.62362   39.13899  174.07336   13.98953  0.5536653  0.35546343   1.9736619  2 MPO386962   366   2 2016-2016 0.29 M-v 3Eh MPCADO     8803          2016 CS29          20160807
K16C29T 24.6   0.15 K1794 233.51206  307.17580  124.75994    8.99176  0.5331446  0.37259679   1.9126844  7 MPO365168    25   1    2 days 0.27 M-v 3Eh MPCW       2803          2016 CT29          20160205
K16C29U 26.7   0.15 K1794 191.98044  202.66284  320.94010    7.35724  0.5116271  0.34673602   2.0066428  6 MPO373609    77   1    6 days 0.40 M-v 3Eh MPCW       2803          2016 CU29          20160211
K16C30A 27.5   0.15 K1794 129.96350  282.47876  137.93530    3.43010  0.2516430  0.76492198   1.1841079  7 MPO365169    26   1    8 days 0.43 M-v 3Eh MPCALB     2803          2016 CA30          20160211
K16C30B 23.5   0.15 K1794 179.39402  173.10735    5.37918    2.93232  0.4703282  0.33692842   2.0453970  4 MPO380412   202   1   87 days 0.39 M-v 3Eh MPCALB     2804          2016 CB30          20160501
K16C30C 20.0   0.15 K1794 147.42662    1.94740  139.03505   35.57768  0.5861141  0.25559511   2.4590519  3 MPO382814   206   1  126 days 0.32 M-v 3Eh MPCALB     A804          2016 CC30          20160609
K16C30D 27.8   0.15 K1794 257.79407  313.90374  131.90848    5.85274  0.4963976  0.41931212   1.7678460  6 MPO373609    31   1    6 days 0.32 M-v 3Eh MPCALB     2803          2016 CD30          20160211
K16C30E 21.5   0.15 K1794  95.27346   53.73796  339.70474    8.71883  0.0889107  0.62101763   1.3606093  5 MPO373609    40   1   29 days 0.32 M-v 38h MPCADO     2804          2016 CE30          20160303
K16C30H 28.0   0.15 K1794 169.12451  270.18138  346.26019    0.48576  0.1783606  1.09407272   0.9327643  6 MPO365170    34   1    4 days 0.49 M-v 3Eh MPCALB     2802          2016 CH30          20160207
K16C30J 24.0   0.15 K1794 167.29499  344.88820  170.90559    0.43220  0.5217339  0.30082655   2.2059311  4 MPO377904   111   1   74 days 0.42 M-v 3Eh MPCALB     2804          2016 CJ30          20160415
K16C30S 22.9   0.15 K1794  65.09415   85.78109  325.09937   23.41129  0.2527985  0.63414540   1.3417661  5 MPO373609    28   1   30 days 0.30 M-v 3Eh MPCALB     2804          2016 CS30          20160304
K16C30T 19.4   0.15 K1794 233.39862  179.71199  306.17658   29.03369  0.2789275  0.42089838   1.7634015  2 MPO416270    65   2 2016-2017 0.37 M-v 38h MPCLINUX   0804          2016 CT30          20170725
K16C30U 21.6   0.15 K1794  98.06488   43.69959  140.77682   27.98780  0.6420646  0.18635380   3.0355954  4 MPO419534   118   1  115 days 0.40 M-v 3Eh MPCLINUX   2804          2016 CU30          20160530
K16C30V 20.9   0.15 K1794 157.73420    4.77412  139.11986   34.58778  0.4866126  0.27651094   2.3334285  6 MPO373609   201   1   24 days 0.37 M-v 38h MPCALB     2804          2016 CV30          20160229
K16C30W 26.7   0.15 K1794 288.79958  202.79351    7.06193    1.00538  0.4550006  0.55247206   1.4709430  7 MPO365171    52   1    6 days 0.41 M-v 3Eh MPCALB     2803          2016 CW30          20160211
K16C30X 24.6   0.15 K1794 176.38692  272.41374  271.41899    2.83238  0.4845658  0.33257136   2.0632229  5 MPO373609    42   1   39 days 0.35 M-v 3Eh MPCALB     2804          2016 CX30          20160315
K16C30Y 24.6   0.15 K1794 161.15168   54.74941  151.94326    5.35309  0.6012347  0.30864011   2.1685419  7 MPO365172    45   1   12 days 0.30 M-v 3Eh MPCADO     2803          2016 CY30          20160217
K16C30Z 25.7   0.15 K1794 208.01359   96.48767  317.34733   20.65591  0.2107502  0.88269212   1.0762914  6 MPO365172    90   1    6 days 0.39 M-v 3Eh MPCALB     2803          2016 CZ30          20160212
K16C31B 25.0   0.15 K1794 223.25401   96.24618   90.84826    1.22763  0.4594948  0.41937517   1.7676688  2 MPO419534    71   1   26 days 0.33 M-v 3Eh MPCLINUX   2803          2016 CB31          20160229
K16C31D 26.9   0.15 K1794 108.78555   12.07330  241.17388    0.45151  0.4541585  0.92339228   1.0444281  7 MPO365173    59   1    6 days 0.50 M-v 3Eh MPCW       2803          2016 CD31          20160211
K16C31E 27.6   0.15 K1794 246.01217  277.52736  120.86653    2.72929  0.2511895  0.93217854   1.0378549  6 MPO373609    37   1    7 days 0.32 M-v 3Eh MPCALB     2803          2016 CE31          20160213
K16C31F 21.7   0.15 K1794 237.05559  211.13333  146.68951   15.16322  0.4788484  0.87181197   1.0852276  6 MPO373609    38   1   31 days 0.28 M-v 3Eh MPCALB     2803          2016 CF31          20160304
K16C31J 27.6   0.15 K1794 225.25638  300.93744  132.09151    4.60569  0.5746607  0.36236280   1.9485295  5 MPO365173     9   1    4 days 0.25 M-v 3Eh MPCW       2803          2016 CJ31          20160205
K16C31K 27.1   0.15 K1794 351.02275   41.66213  139.80517    6.86539  0.2882434  0.65259870   1.3163516  5 MPO365173    58   1    3 days 0.51 M-v 3Eh MPCALB     2803          2016 CK31          20160210
K16C31N 27.3   0.15 K1794 238.20383  321.48235  104.49752    0.47944  0.5849613  0.38146565   1.8829224  5 MPO365174     8   1    3 days 0.11 M-v 3Eh MPCW       2803          2016 CN31          20160206
K16C31W 21.3   0.15 K1794 249.36153  235.44781  324.07328   17.84030  0.3099634  0.50229760   1.5673355  4 MPO373609    25   1   39 days 0.24 M-v 3Eh MPCALB     2804          2016 CW31          20160228
K16C31X 22.6   0.15 K1794 259.16016  212.72099  311.32742   34.70928  0.2082947  0.47963263   1.6163307  6 E2017-V25    20   1   39 days 0.21 M-v 38h MPCLINUX   2804          2016 CX31          20160315
K16C31Y 24.2   0.15 K1794 190.98443   13.85020  164.68370    4.84251  0.4400220  0.35776585   1.9651851  4 MPO380412    75   1   84 days 0.32 M-v 3Eh MPCALB     2804          2016 CY31          20160429
K16C31Z 22.2   0.15 K1794  27.35153   76.05402  309.60726   14.53990  0.4881919  0.57187495   1.4374806  6 MPO373609    28   1   25 days 0.31 M-v 3Eh MPCALB     2803          2016 CZ31          20160301
K16C32A 19.7   0.15 K1794 157.70973  327.41729  101.10485   19.65173  0.7438735  0.24821745   2.5075398  4 MPO377904    49   1   64 days 0.27 M-v 3Eh MPCALB     2803          2016 CA32          20160409
K16C32B 18.6   0.15 K1794 139.06631  241.90204  177.36537    2.64915  0.5872642  0.19100290   2.9861348  5 MPO377904    58   1   56 days 0.32 M-v 38h MPCALB     2804          2016 CB32          20160401
K16C32C 20.9   0.15 K1794 133.70355  137.24547   36.00770    9.74202  0.4945063  0.25173514   2.4841252  3 MPO382814    79   1  124 days 0.27 M-v 38h MPCALB     2804          2016 CC32          20160609
K16C32D 23.2   0.15 K1794 218.55463  351.16869  127.11689   18.60337  0.3479232  0.36353970   1.9443218  5 MPO365175    16   1   23 days 0.15 M-v 38h MPCW       2804          2016 CD32          20160208
K16C32E 23.9   0.15 K1794  22.38707  223.48115   11.35243    5.14245  0.3590762  0.76359739   1.1854769  8 MPO365175    47   1   12 days 0.35 M-v 3Eh MPCALB     2803          2016 CE32          20160218
K16C32F 23.7   0.15 K1794 318.79864   93.72765   31.97968    4.86031  0.2570895  0.54206955   1.4897019  5 MPO377905    39   1   49 days 0.29 M-v 38h MPCALB     2804          2016 CF32          20160326
K16C32H 23.9   0.15 K1794 346.08333  176.78070  320.87212   23.01944  0.1779530  0.60119240   1.3903594  7 MPO365175    52   1   12 days 0.37 M-v 38h MPCALB     2804          2016 CH32          20160218
K16C32J 23.7   0.15 K1794 340.33238  317.65575  141.57286   16.10350  0.2695094  0.55496022   1.4665430  6 MPO373609    59   1   23 days 0.32 M-v 3Eh MPCALB     2804          2016 CJ32          20160301
K16C32L 19.3   0.15 K1794 317.76835  292.82818  123.58139   12.20990  0.4604220  0.51389774   1.5436597  2 MPO419534   104   2 2016-2017 0.39 M-v 3Eh MPCLINUX   8803          2016 CL32          20170725
K16CD5Y 24.5   0.15 K1794 283.14590   26.54005  173.49879    1.10363  0.3535195  0.55014224   1.4750929  3 MPO386963    88   2 2016-2016 0.35 M-v 3Eh MPCALB     0803          2016 CY135         20160713
K16CD5Z 20.5   0.15 K1794 266.95192  138.46118  164.32517    8.21319  0.4159457  0.70305428   1.2525935  3 MPO397877    70   2 2016-2016 0.37 M-v 3Eh MPCADO     0803          2016 CZ135         20161227
